[{"OBJECT_NAME":"PROBA-1","OBJECT_ID":"2001-049B","EPOCH":"2026-03-09T22:57:25.772256","MEAN_MOTION":15.07031721,"ECCENTRICITY":0.00568356,"INCLINATION":97.9638,"RA_OF_ASC_NODE":74.0417,"ARG_OF_PERICENTER":98.1776,"MEAN_ANOMALY":262.5903,"EPHEMERIS_TYPE":0,"CLASSIFICATION_TYPE":"U","NORAD_CAT_ID":26958,"ELEMENT_SET_NO":999,"REV_AT_EPOCH":32867,"BSTAR":0.00028513173,"MEAN_MOTION_DOT":4.362e-5,"MEAN_MOTION_DDOT":0},{"OBJECT_NAME":"FOSSASAT-2E22","OBJECT_ID":"2025-276DU","EPOCH":"2026-03-09T17:31:32.157120","MEAN_MOTION":15.17702542,"ECCENTRICITY":0.00067992,"INCLINATION":97.4248,"RA_OF_ASC_NODE":143.8392,"ARG_OF_PERICENTER":122.1987,"MEAN_ANOMALY":237.9907,"EPHEMERIS_TYPE":0,"CLASSIFICATION_TYPE":"U","NORAD_CAT_ID":66779,"ELEMENT_SET_NO":999,"REV_AT_EPOCH":1531,"BSTAR":0.00072006119,"MEAN_MOTION_DOT":0.00014475,"MEAN_MOTION_DDOT":0}]
